TROLL                   
1 62658U 25009BB  26068.22522958  .00013174  00000+0  48220-3 0  9994
2 62658  97.3932 150.7169 0001816  59.1850 300.9568 15.28164315118170
STARLINK-33802          
1 64392U 25127Y   26068.30004187  .00016788  00000+0  61842-3 0  9999
2 64392  43.0050 182.3191 0002292 253.0323 107.0277 15.27567178 42454
