[{"OBJECT_NAME":"TROLL","OBJECT_ID":"2025-009BB","EPOCH":"2026-03-09T05:24:19.835712","MEAN_MOTION":15.28164315,"ECCENTRICITY":0.00018165,"INCLINATION":97.3932,"RA_OF_ASC_NODE":150.7169,"ARG_OF_PERICENTER":59.185,"MEAN_ANOMALY":300.9568,"EPHEMERIS_TYPE":0,"CLASSIFICATION_TYPE":"U","NORAD_CAT_ID":62658,"ELEMENT_SET_NO":999,"REV_AT_EPOCH":11817,"BSTAR":0.00048220305,"MEAN_MOTION_DOT":0.00013174,"MEAN_MOTION_DDOT":0},{"OBJECT_NAME":"STARLINK-33802","OBJECT_ID":"2025-127Y","EPOCH":"2026-03-09T07:12:03.617568","MEAN_MOTION":15.27567178,"ECCENTRICITY":0.00022923,"INCLINATION":43.005,"RA_OF_ASC_NODE":182.3191,"ARG_OF_PERICENTER":253.0323,"MEAN_ANOMALY":107.0277,"EPHEMERIS_TYPE":0,"CLASSIFICATION_TYPE":"U","NORAD_CAT_ID":64392,"ELEMENT_SET_NO":999,"REV_AT_EPOCH":4245,"BSTAR":0.00061841549,"MEAN_MOTION_DOT":0.00016788,"MEAN_MOTION_DDOT":0}]
